{
  "type": "FeatureCollection",
  "features": [
    {
      "type": "Feature",
      "properties": {
        "norad_id": 30243,
        "name": "FENGYUN 1C DEB",
        "group": "fengyun-1c-debris",
        "lat": 11.026436027189543,
        "lon": 174.88468779353389,
        "alt_km": 842.9043889825207,
        "timestamp": "2025-12-07T14:37:05.479560+00:00",
        "meta_object_name": "FENGYUN 1C DEB",
        "meta_object_id": "1999-025XC",
        "meta_epoch": "2025-12-06T22:50:40.651296",
        "meta_mean_motion": 14.13009234,
        "meta_eccentricity": 0.00129051,
        "meta_inclination": 98.693,
        "meta_ra_of_asc_node": 352.5382,
        "meta_arg_of_pericenter": 134.5514,
        "meta_mean_anomaly": 292.7344,
        "meta_ephemeris_type": 0,
        "meta_classification_type": "U",
        "meta_norad_cat_id": 30243,
        "meta_element_set_no": 999,
        "meta_rev_at_epoch": 97197,
        "meta_bstar": 0.00061105709,
        "meta_mean_motion_dot": 1.098e-05,
        "meta_mean_motion_ddot": 0,
        "tle_line1": "1 30243U 99025XC  25340.95185939  .00001098  00000+0  61106-3 0  9994",
        "tle_line2": "2 30243  98.6930 352.5382 0012905 134.5514 292.7344 14.13009234971978"
      },
      "geometry": {
        "type": "Point",
        "coordinates": [
          174.88468779353389,
          11.026436027189543
        ]
      }
    },
    {
      "type": "Feature",
      "properties": {
        "norad_id": 30244,
        "name": "FENGYUN 1C DEB",
        "group": "fengyun-1c-debris",
        "lat": -32.98898501097519,
        "lon": -122.86502266088772,
        "alt_km": 841.2716079835418,
        "timestamp": "2025-12-07T14:37:05.479570+00:00",
        "meta_object_name": "FENGYUN 1C DEB",
        "meta_object_id": "1999-025XD",
        "meta_epoch": "2025-12-06T17:02:23.572320",
        "meta_mean_motion": 14.15001655,
        "meta_eccentricity": 0.0009833,
        "meta_inclination": 99.1435,
        "meta_ra_of_asc_node": 230.2131,
        "meta_arg_of_pericenter": 332.1325,
        "meta_mean_anomaly": 97.037,
        "meta_ephemeris_type": 0,
        "meta_classification_type": "U",
        "meta_norad_cat_id": 30244,
        "meta_element_set_no": 999,
        "meta_rev_at_epoch": 97261,
        "meta_bstar": 0.00070095164,
        "meta_mean_motion_dot": 1.311e-05,
        "meta_mean_motion_ddot": 0,
        "tle_line1": "1 30244U 99025XD  25340.70999505  .00001311  00000+0  70095-3 0  9995",
        "tle_line2": "2 30244  99.1435 230.2131 0009833 332.1325  97.0370 14.15001655972619"
      },
      "geometry": {
        "type": "Point",
        "coordinates": [
          -122.86502266088772,
          -32.98898501097519
        ]
      }
    },
    {
      "type": "Feature",
      "properties": {
        "norad_id": 30245,
        "name": "FENGYUN 1C DEB",
        "group": "fengyun-1c-debris",
        "lat": 50.63433952650088,
        "lon": -41.47256715655914,
        "alt_km": 1080.4393389318348,
        "timestamp": "2025-12-07T14:37:05.479580+00:00",
        "meta_object_name": "FENGYUN 1C DEB",
        "meta_object_id": "1999-025XE",
        "meta_epoch": "2025-12-06T22:41:35.415456",
        "meta_mean_motion": 13.79045464,
        "meta_eccentricity": 0.01932981,
        "meta_inclination": 98.8882,
        "meta_ra_of_asc_node": 328.9004,
        "meta_arg_of_pericenter": 266.6007,
        "meta_mean_anomaly": 91.302,
        "meta_ephemeris_type": 0,
        "meta_classification_type": "U",
        "meta_norad_cat_id": 30245,
        "meta_element_set_no": 999,
        "meta_rev_at_epoch": 94614,
        "meta_bstar": 0.0019403117,
        "meta_mean_motion_dot": 2.238e-05,
        "meta_mean_motion_ddot": 0,
        "tle_line1": "1 30245U 99025XE  25340.94554879  .00002238  00000+0  19403-2 0  9997",
        "tle_line2": "2 30245  98.8882 328.9004 0193298 266.6007  91.3020 13.79045464946146"
      },
      "geometry": {
        "type": "Point",
        "coordinates": [
          -41.47256715655914,
          50.63433952650088
        ]
      }
    },
    {
      "type": "Feature",
      "properties": {
        "norad_id": 30246,
        "name": "FENGYUN 1C DEB",
        "group": "fengyun-1c-debris",
        "lat": -27.86161591860769,
        "lon": -58.59661824393778,
        "alt_km": 1142.6411552010613,
        "timestamp": "2025-12-07T14:37:05.479591+00:00",
        "meta_object_name": "FENGYUN 1C DEB",
        "meta_object_id": "1999-025XF",
        "meta_epoch": "2025-12-06T22:03:33.020352",
        "meta_mean_motion": 13.37014895,
        "meta_eccentricity": 0.03706956,
        "meta_inclination": 98.6728,
        "meta_ra_of_asc_node": 125.4419,
        "meta_arg_of_pericenter": 114.308,
        "meta_mean_anomaly": 10.3472,
        "meta_ephemeris_type": 0,
        "meta_classification_type": "U",
        "meta_norad_cat_id": 30246,
        "meta_element_set_no": 999,
        "meta_rev_at_epoch": 92062,
        "meta_bstar": 0.00045412878,
        "meta_mean_motion_dot": 3.18e-06,
        "meta_mean_motion_ddot": 0,
        "tle_line1": "1 30246U 99025XF  25340.91913218  .00000318  00000+0  45413-3 0  9999",
        "tle_line2": "2 30246  98.6728 125.4419 0370695 114.3080  10.3472 13.37014895920627"
      },
      "geometry": {
        "type": "Point",
        "coordinates": [
          -58.59661824393778,
          -27.86161591860769
        ]
      }
    },
    {
      "type": "Feature",
      "properties": {
        "norad_id": 30247,
        "name": "FENGYUN 1C DEB",
        "group": "fengyun-1c-debris",
        "lat": 0.36550059626857045,
        "lon": 68.82806373288676,
        "alt_km": 836.5658467891708,
        "timestamp": "2025-12-07T14:37:05.479601+00:00",
        "meta_object_name": "FENGYUN 1C DEB",
        "meta_object_id": "1999-025XG",
        "meta_epoch": "2025-12-06T13:39:16.170624",
        "meta_mean_motion": 14.58789607,
        "meta_eccentricity": 0.01955728,
        "meta_inclination": 98.2767,
        "meta_ra_of_asc_node": 247.7379,
        "meta_arg_of_pericenter": 11.0952,
        "meta_mean_anomaly": 108.6675,
        "meta_ephemeris_type": 0,
        "meta_classification_type": "U",
        "meta_norad_cat_id": 30247,
        "meta_element_set_no": 999,
        "meta_rev_at_epoch": 97192,
        "meta_bstar": 0.0056714606,
        "meta_mean_motion_dot": 0.00034691,
        "meta_mean_motion_ddot": 0,
        "tle_line1": "1 30247U 99025XG  25340.56893716  .00034691  00000+0  56715-2 0  9998",
        "tle_line2": "2 30247  98.2767 247.7379 0195572  11.0952 108.6675 14.58789607971929"
      },
      "geometry": {
        "type": "Point",
        "coordinates": [
          68.82806373288676,
          0.36550059626857045
        ]
      }
    },
    {
      "type": "Feature",
      "properties": {
        "norad_id": 30248,
        "name": "FENGYUN 1C DEB",
        "group": "fengyun-1c-debris",
        "lat": -32.962109139645044,
        "lon": -20.72120578140425,
        "alt_km": 688.4949565647339,
        "timestamp": "2025-12-07T14:37:05.479611+00:00",
        "meta_object_name": "FENGYUN 1C DEB",
        "meta_object_id": "1999-025XH",
        "meta_epoch": "2025-12-06T11:18:27.399744",
        "meta_mean_motion": 14.58824749,
        "meta_eccentricity": 0.00291138,
        "meta_inclination": 99.0979,
        "meta_ra_of_asc_node": 163.998,
        "meta_arg_of_pericenter": 170.7078,
        "meta_mean_anomaly": 189.4663,
        "meta_ephemeris_type": 0,
        "meta_classification_type": "U",
        "meta_norad_cat_id": 30248,
        "meta_element_set_no": 999,
        "meta_rev_at_epoch": 97337,
        "meta_bstar": 0.0075673851,
        "meta_mean_motion_dot": 0.00035732,
        "meta_mean_motion_ddot": 0,
        "tle_line1": "1 30248U 99025XH  25340.47115046  .00035732  00000+0  75674-2 0  9994",
        "tle_line2": "2 30248  99.0979 163.9980 0029113 170.7078 189.4663 14.58824749973372"
      },
      "geometry": {
        "type": "Point",
        "coordinates": [
          -20.72120578140425,
          -32.962109139645044
        ]
      }
    },
    {
      "type": "Feature",
      "properties": {
        "norad_id": 30249,
        "name": "FENGYUN 1C DEB",
        "group": "fengyun-1c-debris",
        "lat": -51.34182646471325,
        "lon": 157.01193470820058,
        "alt_km": 714.7572669341034,
        "timestamp": "2025-12-07T14:37:05.479622+00:00",
        "meta_object_name": "FENGYUN 1C DEB",
        "meta_object_id": "1999-025XJ",
        "meta_epoch": "2025-12-06T22:56:35.361312",
        "meta_mean_motion": 14.57392259,
        "meta_eccentricity": 0.0026279,
        "meta_inclination": 98.9595,
        "meta_ra_of_asc_node": 144.9354,
        "meta_arg_of_pericenter": 59.9182,
        "meta_mean_anomaly": 63.4529,
        "meta_ephemeris_type": 0,
        "meta_classification_type": "U",
        "meta_norad_cat_id": 30249,
        "meta_element_set_no": 999,
        "meta_rev_at_epoch": 97479,
        "meta_bstar": 0.005435346,
        "meta_mean_motion_dot": 0.00024796,
        "meta_mean_motion_ddot": 0,
        "tle_line1": "1 30249U 99025XJ  25340.95596483  .00024796  00000+0  54353-2 0  9995",
        "tle_line2": "2 30249  98.9595 144.9354 0026279  59.9182  63.4529 14.57392259974797"
      },
      "geometry": {
        "type": "Point",
        "coordinates": [
          157.01193470820058,
          -51.34182646471325
        ]
      }
    }
  ]
}